{
  "type": "FeatureCollection",
  "features": [
    {
      "type": "Feature",
      "properties": {
        "norad_id": 40376,
        "name": "SMAP",
        "group": "resource",
        "lat": -57.83404356731553,
        "lon": 171.19113996151918,
        "alt_km": 690.181870789098,
        "timestamp": "2025-12-25T19:00:39.005385+00:00",
        "meta_object_name": "SMAP",
        "meta_object_id": "2015-003A",
        "meta_epoch": "2025-12-25T06:26:09.912192",
        "meta_mean_motion": 14.63360027,
        "meta_eccentricity": 0.00012373,
        "meta_inclination": 98.1291,
        "meta_ra_of_asc_node": 3.8114,
        "meta_arg_of_pericenter": 92.1923,
        "meta_mean_anomaly": 267.9421,
        "meta_ephemeris_type": 0,
        "meta_classification_type": "U",
        "meta_norad_cat_id": 40376,
        "meta_element_set_no": 999,
        "meta_rev_at_epoch": 58218,
        "meta_bstar": 0.00011437238,
        "meta_mean_motion_dot": 5.44e-06,
        "meta_mean_motion_ddot": 0,
        "tle_line1": "1 40376U 15003A   25359.26817028  .00000544  00000+0  11437-3 0  9998",
        "tle_line2": "2 40376  98.1291   3.8114 0001237  92.1923 267.9421 14.63360027582185"
      },
      "geometry": {
        "type": "Point",
        "coordinates": [
          171.19113996151918,
          -57.83404356731553
        ]
      }
    },
    {
      "type": "Feature",
      "properties": {
        "norad_id": 40536,
        "name": "KOMPSAT-3A",
        "group": "resource",
        "lat": 56.86141294854322,
        "lon": 166.79451533906914,
        "alt_km": 424.16248523727154,
        "timestamp": "2025-12-25T19:00:39.005396+00:00",
        "meta_object_name": "KOMPSAT-3A",
        "meta_object_id": "2015-014A",
        "meta_epoch": "2025-12-25T06:02:37.052736",
        "meta_mean_motion": 15.44400915,
        "meta_eccentricity": 0.00056282,
        "meta_inclination": 97.6807,
        "meta_ra_of_asc_node": 334.2935,
        "meta_arg_of_pericenter": 100.1174,
        "meta_mean_anomaly": 260.0709,
        "meta_ephemeris_type": 0,
        "meta_classification_type": "U",
        "meta_norad_cat_id": 40536,
        "meta_element_set_no": 999,
        "meta_rev_at_epoch": 59488,
        "meta_bstar": 0.00042728993,
        "meta_mean_motion_dot": 0.00019681,
        "meta_mean_motion_ddot": 0,
        "tle_line1": "1 40536U 15014A   25359.25181774  .00019681  00000+0  42729-3 0  9999",
        "tle_line2": "2 40536  97.6807 334.2935 0005628 100.1174 260.0709 15.44400915594882"
      },
      "geometry": {
        "type": "Point",
        "coordinates": [
          166.79451533906914,
          56.86141294854322
        ]
      }
    },
    {
      "type": "Feature",
      "properties": {
        "norad_id": 40697,
        "name": "SENTINEL-2A",
        "group": "resource",
        "lat": 20.154488445866377,
        "lon": 68.96814114092118,
        "alt_km": 788.7366754964305,
        "timestamp": "2025-12-25T19:00:39.005406+00:00",
        "meta_object_name": "SENTINEL-2A",
        "meta_object_id": "2015-028A",
        "meta_epoch": "2025-12-25T07:10:03.037728",
        "meta_mean_motion": 14.30810416,
        "meta_eccentricity": 0.00010551,
        "meta_inclination": 98.5728,
        "meta_ra_of_asc_node": 71.6554,
        "meta_arg_of_pericenter": 90.3997,
        "meta_mean_anomaly": 269.7307,
        "meta_ephemeris_type": 0,
        "meta_classification_type": "U",
        "meta_norad_cat_id": 40697,
        "meta_element_set_no": 999,
        "meta_rev_at_epoch": 54886,
        "meta_bstar": 6.2592653e-05,
        "meta_mean_motion_dot": 1.2e-06,
        "meta_mean_motion_ddot": 0,
        "tle_line1": "1 40697U 15028A   25359.29864627  .00000120  00000+0  62593-4 0  9991",
        "tle_line2": "2 40697  98.5728  71.6554 0001055  90.3997 269.7307 14.30810416548866"
      },
      "geometry": {
        "type": "Point",
        "coordinates": [
          68.96814114092118,
          20.154488445866377
        ]
      }
    },
    {
      "type": "Feature",
      "properties": {
        "norad_id": 40701,
        "name": "GAOFEN-8",
        "group": "resource",
        "lat": 82.13912039320735,
        "lon": 76.72312305525429,
        "alt_km": 433.6031412829652,
        "timestamp": "2025-12-25T19:00:39.005416+00:00",
        "meta_object_name": "GAOFEN-8",
        "meta_object_id": "2015-030A",
        "meta_epoch": "2025-12-25T07:41:30.648768",
        "meta_mean_motion": 15.3901081,
        "meta_eccentricity": 0.0011506,
        "meta_inclination": 97.69,
        "meta_ra_of_asc_node": 178.0781,
        "meta_arg_of_pericenter": 94.816,
        "meta_mean_anomaly": 265.4399,
        "meta_ephemeris_type": 0,
        "meta_classification_type": "U",
        "meta_norad_cat_id": 40701,
        "meta_element_set_no": 999,
        "meta_rev_at_epoch": 58464,
        "meta_bstar": 0.001053087,
        "meta_mean_motion_dot": 0.00040847,
        "meta_mean_motion_ddot": 0,
        "tle_line1": "1 40701U 15030A   25359.32049362  .00040847  00000+0  10531-2 0  9998",
        "tle_line2": "2 40701  97.6900 178.0781 0011506  94.8160 265.4399 15.39010810584641"
      },
      "geometry": {
        "type": "Point",
        "coordinates": [
          76.72312305525429,
          82.13912039320735
        ]
      }
    },
    {
      "type": "Feature",
      "properties": {
        "norad_id": 40718,
        "name": "CARBONITE 1 (CBNT-1)",
        "group": "resource",
        "lat": -80.26750794020698,
        "lon": -128.23414586533715,
        "alt_km": 635.7039985089841,
        "timestamp": "2025-12-25T19:00:39.005427+00:00",
        "meta_object_name": "CARBONITE 1 (CBNT-1)",
        "meta_object_id": "2015-032D",
        "meta_epoch": "2025-12-25T06:26:01.104576",
        "meta_mean_motion": 14.82799261,
        "meta_eccentricity": 0.00154078,
        "meta_inclination": 97.6405,
        "meta_ra_of_asc_node": 179.7607,
        "meta_arg_of_pericenter": 141.0206,
        "meta_mean_anomaly": 219.2122,
        "meta_ephemeris_type": 0,
        "meta_classification_type": "U",
        "meta_norad_cat_id": 40718,
        "meta_element_set_no": 999,
        "meta_rev_at_epoch": 56356,
        "meta_bstar": 0.00016972565,
        "meta_mean_motion_dot": 1.325e-05,
        "meta_mean_motion_ddot": 0,
        "tle_line1": "1 40718U 15032D   25359.26806834  .00001325  00000+0  16973-3 0  9991",
        "tle_line2": "2 40718  97.6405 179.7607 0015407 141.0206 219.2122 14.82799261563564"
      },
      "geometry": {
        "type": "Point",
        "coordinates": [
          -128.23414586533715,
          -80.26750794020698
        ]
      }
    },
    {
      "type": "Feature",
      "properties": {
        "norad_id": 40878,
        "name": "YAOGAN-27",
        "group": "resource",
        "lat": 70.54279968075409,
        "lon": -41.48335364432056,
        "alt_km": 1198.6092480547222,
        "timestamp": "2025-12-25T19:00:39.005437+00:00",
        "meta_object_name": "YAOGAN-27",
        "meta_object_id": "2015-040A",
        "meta_epoch": "2025-12-25T05:52:04.267776",
        "meta_mean_motion": 13.16062945,
        "meta_eccentricity": 0.00075536,
        "meta_inclination": 100.102,
        "meta_ra_of_asc_node": 348.2989,
        "meta_arg_of_pericenter": 255.5662,
        "meta_mean_anomaly": 104.4614,
        "meta_ephemeris_type": 0,
        "meta_classification_type": "U",
        "meta_norad_cat_id": 40878,
        "meta_element_set_no": 999,
        "meta_rev_at_epoch": 49478,
        "meta_bstar": 0.001149905,
        "meta_mean_motion_dot": 3.94e-06,
        "meta_mean_motion_ddot": 0,
        "tle_line1": "1 40878U 15040A   25359.24449384  .00000394  00000+0  11499-2 0  9990",
        "tle_line2": "2 40878 100.1020 348.2989 0007553 255.5662 104.4614 13.16062945494786"
      },
      "geometry": {
        "type": "Point",
        "coordinates": [
          -41.48335364432056,
          70.54279968075409
        ]
      }
    },
    {
      "type": "Feature",
      "properties": {
        "norad_id": 40894,
        "name": "GAOFEN-9 01",
        "group": "resource",
        "lat": -1.071875796205546,
        "lon": -141.96106255668758,
        "alt_km": 643.6883001377664,
        "timestamp": "2025-12-25T19:00:39.005448+00:00",
        "meta_object_name": "GAOFEN-9 01",
        "meta_object_id": "2015-047A",
        "meta_epoch": "2025-12-25T06:51:25.851168",
        "meta_mean_motion": 14.82452043,
        "meta_eccentricity": 0.00273674,
        "meta_inclination": 97.6527,
        "meta_ra_of_asc_node": 37.6986,
        "meta_arg_of_pericenter": 353.6814,
        "meta_mean_anomaly": 6.405,
        "meta_ephemeris_type": 0,
        "meta_classification_type": "U",
        "meta_norad_cat_id": 40894,
        "meta_element_set_no": 999,
        "meta_rev_at_epoch": 55442,
        "meta_bstar": 0.00014717592,
        "meta_mean_motion_dot": 1.136e-05,
        "meta_mean_motion_ddot": 0,
        "tle_line1": "1 40894U 15047A   25359.28571587  .00001136  00000+0  14718-3 0  9993",
        "tle_line2": "2 40894  97.6527  37.6986 0027367 353.6814   6.4050 14.82452043554425"
      },
      "geometry": {
        "type": "Point",
        "coordinates": [
          -141.96106255668758,
          -1.071875796205546
        ]
      }
    }
  ]
}